SENTINEL-6              
1 46984U 20086A   24177.42962926 -.00000054  00000+0  32002-4 0  9998
2 46984  66.0388 194.1506 0007967 270.2623  89.7479 12.80929269167883
